OBJECT_NAME,OBJECT_ID,EPOCH,MEAN_MOTION,ECCENTRICITY,INCLINATION,RA_OF_ASC_NODE,ARG_OF_PERICENTER,MEAN_ANOMALY,EPHEMERIS_TYPE,CLASSIFICATION_TYPE,NORAD_CAT_ID,ELEMENT_SET_NO,REV_AT_EPOCH,BSTAR,MEAN_MOTION_DOT,MEAN_MOTION_DDOT
DMSP 5D-3 F16 (USA 172),2003-048A,2026-07-05T10:08:41.189280,14.14484754,.00082104,98.9886,210.3712,95.0172,7.2314,0,U,28054,999,17206,.44662448E-4,.4E-6,0
METEOSAT-9 (MSG-2),2005-049B,2026-07-04T17:31:39.317088,1.00268028,.00023882,9.3983,53.9918,0.4955,176.8994,0,U,28912,999,717,0,.133E-5,0
DMSP 5D-3 F17 (USA 191),2006-050A,2026-07-05T11:36:49.370400,14.14995663,.00103026,98.7381,192.6797,10.6814,349.4577,0,U,29522,999,1501,.61046228E-4,.75E-6,0
FENGYUN 3A,2008-026A,2026-07-05T07:15:40.001184,14.19575181,.0009875,98.6885,126.7971,77.2748,282.9532,0,U,32958,999,93797,.77931E-4,.121E-5,0
GOES 14,2009-033A,2026-07-05T12:45:11.167200,1.00103643,.0002101,1.7341,82.8289,31.1570,131.8513,0,U,35491,999,677,0,-.332E-5,0
DMSP 5D-3 F18 (USA 210),2009-057A,2026-07-05T14:20:57.683904,14.14907412,.0010661,98.9047,167.3277,192.8844,167.2058,0,U,35951,999,86219,.16547215E-3,.275E-5,0
EWS-G2 (GOES 15),2010-008A,2026-07-05T12:25:56.443296,1.00268286,.00053505,1.3248,82.5972,48.9751,41.8629,0,U,36411,999,5982,0,.34E-6,0
COMS 1,2010-032A,2026-07-04T20:44:48.528384,0.99169370,.001164,4.8475,75.1472,14.1480,147.8491,0,U,36744,999,5126,0,-.135E-5,0
FENGYUN 3B,2010-059A,2026-07-05T15:23:27.494880,14.14847618,.00228466,98.9605,232.7334,132.5681,37.5405,0,U,37214,999,81003,.31421901E-3,.563E-5,0
SUOMI NPP,2011-061A,2026-07-05T14:18:49.991616,14.19521299,.00005915,98.7955,127.3470,289.1282,70.9830,0,U,37849,999,76105,.67039319E-4,.97E-6,0
METEOSAT-10 (MSG-3),2012-035B,2026-07-05T06:59:52.195776,1.00269660,.0001423,4.7115,60.9295,17.8763,309.5534,0,U,38552,999,5103,0,.5E-7,0
METOP-B,2012-049A,2026-07-05T08:24:41.726880,14.21444651,.0001187,98.6494,237.4865,314.6634,45.4447,0,U,38771,999,71584,.85958E-4,.145E-5,0
INSAT-3D,2013-038B,2026-07-02T20:26:20.229792,1.00268722,.00010564,1.9642,82.3574,15.1644,259.4386,0,U,39216,999,4723,0,-.329E-5,0
FENGYUN 3C,2013-052A,2026-07-05T15:08:31.011936,14.15759195,.00141465,98.4998,159.6597,334.9488,25.0999,0,U,39260,999,66117,.59848831E-4,.76E-6,0
METEOR-M 2,2014-037A,2026-07-05T15:47:43.882656,14.21466141,.00057685,98.5128,161.7432,356.0782,4.0349,0,U,40069,999,62194,-.26856998E-4,-.101E-5,0
HIMAWARI-8,2014-060A,2026-07-05T14:19:39.820224,1.00270538,.0000944,0.0175,34.0764,84.3005,160.8038,0,U,40267,999,4294,0,-.262E-5,0
FENGYUN 2G,2014-090A,2026-07-05T14:18:49.021344,1.00265165,.0003703,5.6825,72.5975,150.4392,14.7589,0,U,40367,999,4218,0,-.289E-5,0
METEOSAT-11 (MSG-4),2015-034A,2026-07-05T13:53:02.844960,1.00268848,.00022498,3.2464,70.9958,350.1849,79.9413,0,U,40732,999,740,0,.74E-6,0
ELEKTRO-L 2,2015-074A,2026-07-04T22:22:25.997376,1.00273703,.0000617,6.7363,70.3059,256.6108,277.0927,0,U,41105,999,3868,0,-.107E-5,0
SENTINEL-3A,2016-011A,2026-07-05T09:07:29.985024,14.26738070,.0001424,98.6241,253.5019,93.3626,266.7718,0,U,41335,999,54065,.8358E-4,.159E-5,0
INSAT-3DR,2016-054A,2026-07-05T14:11:34.716192,1.00272516,.00103121,0.0452,89.4624,181.7428,299.2673,0,U,41752,999,3600,0,-.63E-6,0
HIMAWARI-9,2016-064A,2026-07-05T04:21:38.504160,1.00273443,.0001336,0.0208,278.6772,226.6727,343.9982,0,U,41836,999,3539,0,-.261E-5,0
GOES 16,2016-071A,2026-07-05T13:24:19.005120,1.00271784,.0000512,0.3831,85.6725,53.9412,240.3346,0,U,41866,999,3528,0,-.77E-6,0
FENGYUN 4A,2016-077A,2026-07-05T15:51:39.959424,1.00274232,.00080074,2.3666,80.0843,157.8053,47.4517,0,U,41882,999,3511,0,-.344E-5,0
CYGFM05,2016-078A,2026-07-05T06:14:18.383136,15.57493813,.0007805,34.9562,140.8434,306.2886,53.7117,0,U,41884,999,53157,.46812E-3,.35736E-3,0
CYGFM04,2016-078B,2026-07-05T04:09:16.549344,15.62590933,.0006085,34.9320,108.1857,341.3726,18.6776,0,U,41885,999,53181,.51978E-3,.4832E-3,0
CYGFM02,2016-078C,2026-07-05T04:51:07.130304,15.65774539,.0006919,34.9401,101.9852,345.4932,14.5595,0,U,41886,999,53199,.54085E-3,.5714E-3,0
CYGFM01,2016-078D,2026-07-05T05:46:29.000352,15.58197350,.0007729,34.9394,141.8798,300.8681,59.1284,0,U,41887,999,53152,.4773E-3,.37427E-3,0
CYGFM08,2016-078E,2026-07-05T05:34:41.996928,15.61010948,.0008177,34.9426,121.0275,331.2592,28.7682,0,U,41888,999,53179,.49493E-3,.43264E-3,0
CYGFM07,2016-078G,2026-07-05T04:34:13.145088,15.61116716,.0006444,34.9443,109.6333,342.6067,17.4437,0,U,41890,999,53181,.50921E-3,.44677E-3,0
CYGFM03,2016-078H,2026-07-05T05:24:41.904000,15.61107669,.0006439,34.9397,111.3315,329.4859,30.5491,0,U,41891,999,53179,.50354E-3,.44161E-3,0
